{"type": "FeatureCollection", "features": [ {"type": "Feature", "properties": {"norad_id": 39019, "name": "PLEIADES 1B", "group": "resource", "lat": 81.72927559882405, "lon": -7.221651506213714, "alt_km": 689.5265506731539, "timestamp": "2025-12-27T22:26:48.269919+00:00", "meta": {"OBJECT_NAME": "PLEIADES 1B", "OBJECT_ID": "2012-068A", "EPOCH": "2025-12-27T12:09:45.749664", "MEAN_MOTION": 14.58567082, "ECCENTRICITY": 0.0001152, "INCLINATION": 98.1772, "RA_OF_ASC_NODE": 73.9241, "ARG_OF_PERICENTER": 86.0163, "MEAN_ANOMALY": 274.1168, "EPHEMERIS_TYPE": 0, "CLASSIFICATION_TYPE": "U", "NORAD_CAT_ID": 39019, "ELEMENT_SET_NO": 999, "REV_AT_EPOCH": 69582, "BSTAR": 0.00014624, "MEAN_MOTION_DOT": 6.35e-06, "MEAN_MOTION_DDOT": 0}, "tle": {"line1": "1 39019U 12068A   25361.50677951  .00000635  00000+0  14624-3 0  9999", "line2": "2 39019  98.1772  73.9241 0001152  86.0163 274.1168 14.58567082695822"}}, "geometry": {"type": "Point", "coordinates": [-7.221651506213714, 81.72927559882405]}}, {"type": "Feature", "properties": {"norad_id": 39030, "name": "GOKTURK 2", "group": "resource", "lat": 41.37717877045255, "lon": 29.676065855942973, "alt_km": 639.9835827727356, "timestamp": "2025-12-27T22:26:48.269928+00:00", "meta": {"OBJECT_NAME": "GOKTURK 2", "OBJECT_ID": "2012-073A", "EPOCH": "2025-12-27T13:41:03.223680", "MEAN_MOTION": 14.75310495, "ECCENTRICITY": 0.0001507, "INCLINATION": 97.6888, "RA_OF_ASC_NODE": 202.4942, "ARG_OF_PERICENTER": 106.4563, "MEAN_ANOMALY": 253.6812, "EPHEMERIS_TYPE": 0, "CLASSIFICATION_TYPE": "U", "NORAD_CAT_ID": 39030, "ELEMENT_SET_NO": 999, "REV_AT_EPOCH": 69920, "BSTAR": 5.2507e-05, "MEAN_MOTION_DOT": 3.09e-06, "MEAN_MOTION_DDOT": 0}, "tle": {"line1": "1 39030U 12073A   25361.57017620  .00000309  00000+0  52507-4 0  9997", "line2": "2 39030  97.6888 202.4942 0001507 106.4563 253.6812 14.75310495699206"}}, "geometry": {"type": "Point", "coordinates": [29.676065855942973, 41.37717877045255]}}, {"type": "Feature", "properties": {"norad_id": 39084, "name": "LANDSAT 8", "group": "resource", "lat": -0.0019836105570712253, "lon": -110.21720307930238, "alt_km": 705.4343680823795, "timestamp": "2025-12-27T22:26:48.269938+00:00", "meta": {"OBJECT_NAME": "LANDSAT 8", "OBJECT_ID": "2013-008A", "EPOCH": "2025-12-27T11:44:07.927296", "MEAN_MOTION": 14.57117435, "ECCENTRICITY": 0.0001055, "INCLINATION": 98.2054, "RA_OF_ASC_NODE": 69.3435, "ARG_OF_PERICENTER": 94.5045, "MEAN_ANOMALY": 265.6274, "EPHEMERIS_TYPE": 0, "CLASSIFICATION_TYPE": "U", "NORAD_CAT_ID": 39084, "ELEMENT_SET_NO": 999, "REV_AT_EPOCH": 67289, "BSTAR": 0.00011453, "MEAN_MOTION_DOT": 4.71e-06, "MEAN_MOTION_DDOT": 0}, "tle": {"line1": "1 39084U 13008A   25361.48898064  .00000471  00000+0  11453-3 0  9998", "line2": "2 39084  98.2054  69.3435 0001055  94.5045 265.6274 14.57117435672894"}}, "geometry": {"type": "Point", "coordinates": [-110.21720307930238, -0.0019836105570712253]}}, {"type": "Feature", "properties": {"norad_id": 39086, "name": "SARAL", "group": "resource", "lat": -79.83328029155003, "lon": -117.30374900631442, "alt_km": 791.8669168465067, "timestamp": "2025-12-27T22:26:48.269948+00:00", "meta": {"OBJECT_NAME": "SARAL", "OBJECT_ID": "2013-009A", "EPOCH": "2025-12-27T11:06:30.140640", "MEAN_MOTION": 14.32762288, "ECCENTRICITY": 0.0002939, "INCLINATION": 98.5504, "RA_OF_ASC_NODE": 185.2011, "ARG_OF_PERICENTER": 81.1403, "MEAN_ANOMALY": 279.0114, "EPHEMERIS_TYPE": 0, "CLASSIFICATION_TYPE": "U", "NORAD_CAT_ID": 39086, "ELEMENT_SET_NO": 999, "REV_AT_EPOCH": 67101, "BSTAR": 7.4666e-05, "MEAN_MOTION_DOT": 1.6e-06, "MEAN_MOTION_DDOT": 0}, "tle": {"line1": "1 39086U 13009A   25361.46284885  .00000160  00000+0  74666-4 0  9990", "line2": "2 39086  98.5504 185.2011 0002939  81.1403 279.0114 14.32762288671019"}}, "geometry": {"type": "Point", "coordinates": [-117.30374900631442, -79.83328029155003]}}, {"type": "Feature", "properties": {"norad_id": 39150, "name": "GAOFEN-1", "group": "resource", "lat": -75.09996544873735, "lon": 103.91734446459292, "alt_km": 660.6474589694644, "timestamp": "2025-12-27T22:26:48.269958+00:00", "meta": {"OBJECT_NAME": "GAOFEN-1", "OBJECT_ID": "2013-018A", "EPOCH": "2025-12-27T13:02:19.631328", "MEAN_MOTION": 14.76505312, "ECCENTRICITY": 0.0018541, "INCLINATION": 97.9304, "RA_OF_ASC_NODE": 71.9391, "ARG_OF_PERICENTER": 98.1456, "MEAN_ANOMALY": 262.1858, "EPHEMERIS_TYPE": 0, "CLASSIFICATION_TYPE": "U", "NORAD_CAT_ID": 39150, "ELEMENT_SET_NO": 999, "REV_AT_EPOCH": 68291, "BSTAR": 0.00011559, "MEAN_MOTION_DOT": 7.56e-06, "MEAN_MOTION_DDOT": 0}, "tle": {"line1": "1 39150U 13018A   25361.54328277  .00000756  00000+0  11559-3 0  9997", "line2": "2 39150  97.9304  71.9391 0018541  98.1456 262.1858 14.76505312682916"}}, "geometry": {"type": "Point", "coordinates": [103.91734446459292, -75.09996544873735]}}, {"type": "Feature", "properties": {"norad_id": 39160, "name": "VNREDSAT 1", "group": "resource", "lat": 70.86306670741226, "lon": 32.97607112667214, "alt_km": 669.5817909854477, "timestamp": "2025-12-27T22:26:48.269968+00:00", "meta": {"OBJECT_NAME": "VNREDSAT 1", "OBJECT_ID": "2013-021B", "EPOCH": "2025-12-27T12:16:52.670208", "MEAN_MOTION": 14.64945061, "ECCENTRICITY": 0.0001172, "INCLINATION": 97.935, "RA_OF_ASC_NODE": 56.2674, "ARG_OF_PERICENTER": 82.4157, "MEAN_ANOMALY": 277.7179, "EPHEMERIS_TYPE": 0, "CLASSIFICATION_TYPE": "U", "NORAD_CAT_ID": 39160, "ELEMENT_SET_NO": 999, "REV_AT_EPOCH": 67515, "BSTAR": 0.00017186, "MEAN_MOTION_DOT": 8.74e-06, "MEAN_MOTION_DDOT": 0}, "tle": {"line1": "1 39160U 13021B   25361.51172072  .00000874  00000+0  17186-3 0  9992", "line2": "2 39160  97.9350  56.2674 0001172  82.4157 277.7179 14.64945061675156"}}, "geometry": {"type": "Point", "coordinates": [32.97607112667214, 70.86306670741226]}}, {"type": "Feature", "properties": {"norad_id": 39227, "name": "ARIRANG-5 (KOMPSAT-5)", "group": "resource", "lat": 26.977295312039537, "lon": 9.92901854861932, "alt_km": 553.1506848999279, "timestamp": "2025-12-27T22:26:48.269978+00:00", "meta": {"OBJECT_NAME": "ARIRANG-5 (KOMPSAT-5)", "OBJECT_ID": "2013-042A", "EPOCH": "2025-12-27T12:11:35.863872", "MEAN_MOTION": 15.04495682, "ECCENTRICITY": 0.0002898, "INCLINATION": 97.6168, "RA_OF_ASC_NODE": 185.6021, "ARG_OF_PERICENTER": 31.3364, "MEAN_ANOMALY": 328.8034, "EPHEMERIS_TYPE": 0, "CLASSIFICATION_TYPE": "U", "NORAD_CAT_ID": 39227, "ELEMENT_SET_NO": 999, "REV_AT_EPOCH": 67804, "BSTAR": 0.00021124, "MEAN_MOTION_DOT": 2.896e-05, "MEAN_MOTION_DDOT": 0}, "tle": {"line1": "1 39227U 13042A   25361.50805398  .00002896  00000+0  21124-3 0  9995", "line2": "2 39227  97.6168 185.6021 0002898  31.3364 328.8034 15.04495682678049"}}, "geometry": {"type": "Point", "coordinates": [9.92901854861932, 26.977295312039537]}}, {"type": "Feature", "properties": {"norad_id": 39418, "name": "SKYSAT-A", "group": "resource", "lat": -15.696367788376183, "lon": -130.41441212215378, "alt_km": 521.1572024720635, "timestamp": "2025-12-27T22:26:48.269988+00:00", "meta": {"OBJECT_NAME": "SKYSAT-A", "OBJECT_ID": "2013-066C", "EPOCH": "2025-12-27T02:31:13.632096", "MEAN_MOTION": 15.11707767, "ECCENTRICITY": 0.00218076, "INCLINATION": 97.4087, "RA_OF_ASC_NODE": 50.8762, "ARG_OF_PERICENTER": 185.5174, "MEAN_ANOMALY": 174.582, "EPHEMERIS_TYPE": 0, "CLASSIFICATION_TYPE": "U", "NORAD_CAT_ID": 39418, "ELEMENT_SET_NO": 999, "REV_AT_EPOCH": 66247, "BSTAR": 0.00026895435, "MEAN_MOTION_DOT": 4.542e-05, "MEAN_MOTION_DDOT": 0}, "tle": {"line1": "1 39418U 13066C   25361.10501889  .00004542  00000+0  26895-3 0  9997", "line2": "2 39418  97.4087  50.8762 0021807 185.5174 174.5820 15.11707767662473"}}, "geometry": {"type": "Point", "coordinates": [-130.41441212215378, -15.696367788376183]}}, {"type": "Feature", "properties": {"norad_id": 39419, "name": "DUBAISAT-2", "group": "resource", "lat": 18.423849468744713, "lon": 174.37320525291454, "alt_km": 542.3894144510787, "timestamp": "2025-12-27T22:26:48.269997+00:00", "meta": {"OBJECT_NAME": "DUBAISAT-2", "OBJECT_ID": "2013-066D", "EPOCH": "2025-12-27T12:10:52.008096", "MEAN_MOTION": 15.08502766, "ECCENTRICITY": 0.0009623, "INCLINATION": 97.4468, "RA_OF_ASC_NODE": 351.4612, "ARG_OF_PERICENTER": 263.5584, "MEAN_ANOMALY": 96.4549, "EPHEMERIS_TYPE": 0, "CLASSIFICATION_TYPE": "U", "NORAD_CAT_ID": 39419, "ELEMENT_SET_NO": 999, "REV_AT_EPOCH": 66049, "BSTAR": 0.00043132, "MEAN_MOTION_DOT": 6.674e-05, "MEAN_MOTION_DDOT": 0}, "tle": {"line1": "1 39419U 13066D   25361.50754639  .00006674  00000+0  43132-3 0  9996", "line2": "2 39419  97.4468 351.4612 0009623 263.5584  96.4549 15.08502766660493"}}, "geometry": {"type": "Point", "coordinates": [174.37320525291454, 18.423849468744713]}}, {"type": "Feature", "properties": {"norad_id": 39574, "name": "GPM-CORE", "group": "resource", "lat": 17.562953357860184, "lon": -26.71092292991357, "alt_km": 431.8983736438886, "timestamp": "2025-12-27T22:26:48.270007+00:00", "meta": {"OBJECT_NAME": "GPM-CORE", "OBJECT_ID": "2014-009C", "EPOCH": "2025-12-27T12:25:51.684384", "MEAN_MOTION": 15.44704144, "ECCENTRICITY": 0.0008973, "INCLINATION": 64.9729, "RA_OF_ASC_NODE": 163.1902, "ARG_OF_PERICENTER": 252.11, "MEAN_ANOMALY": 107.9062, "EPHEMERIS_TYPE": 0, "CLASSIFICATION_TYPE": "U", "NORAD_CAT_ID": 39574, "ELEMENT_SET_NO": 999, "REV_AT_EPOCH": 67129, "BSTAR": 0.00021328, "MEAN_MOTION_DOT": 9.782e-05, "MEAN_MOTION_DDOT": 0}, "tle": {"line1": "1 39574U 14009C   25361.51795931  .00009782  00000+0  21328-3 0  9993", "line2": "2 39574  64.9729 163.1902 0008973 252.1100 107.9062 15.44704144671291"}}, "geometry": {"type": "Point", "coordinates": [-26.71092292991357, 17.562953357860184]}}]}